[{"OBJECT_NAME":"STARLINK-5214","OBJECT_ID":"2022-175E","EPOCH":"2026-03-09T22:13:12.468864","MEAN_MOTION":15.08845997,"ECCENTRICITY":0.00014905,"INCLINATION":53.2188,"RA_OF_ASC_NODE":43.1341,"ARG_OF_PERICENTER":100.2873,"MEAN_ANOMALY":259.8287,"EPHEMERIS_TYPE":0,"CLASSIFICATION_TYPE":"U","NORAD_CAT_ID":54762,"ELEMENT_SET_NO":999,"REV_AT_EPOCH":17995,"BSTAR":-4.3046126e-5,"MEAN_MOTION_DOT":-9.73e-6,"MEAN_MOTION_DDOT":0},{"OBJECT_NAME":"CZ-6A DEB","OBJECT_ID":"2024-140KE","EPOCH":"2026-03-09T13:17:54.060288","MEAN_MOTION":15.16973657,"ECCENTRICITY":0.0047014,"INCLINATION":88.8608,"RA_OF_ASC_NODE":269.4441,"ARG_OF_PERICENTER":134.0266,"MEAN_ANOMALY":226.4867,"EPHEMERIS_TYPE":0,"CLASSIFICATION_TYPE":"U","NORAD_CAT_ID":60875,"ELEMENT_SET_NO":999,"REV_AT_EPOCH":8467,"BSTAR":0.004516425,"MEAN_MOTION_DOT":0.00092692,"MEAN_MOTION_DDOT":0}]
